{
  "type": "FeatureCollection",
  "features": [
    {
      "type": "Feature",
      "properties": {
        "norad_id": 2807,
        "name": "OPS 7218 (TRANSIT 16)",
        "group": "nnss",
        "lat": NaN,
        "lon": NaN,
        "alt_km": NaN,
        "timestamp": "2025-12-01T03:08:34.196291+00:00",
        "meta": {
          "OBJECT_NAME": "OPS 7218 (TRANSIT 16)",
          "OBJECT_ID": "1967-048A",
          "EPOCH": "2025-11-30T14:42:27.941760",
          "MEAN_MOTION": 13.50718636,
          "ECCENTRICITY": 0.0021285,
          "INCLINATION": 89.6738,
          "RA_OF_ASC_NODE": 354.4185,
          "ARG_OF_PERICENTER": 146.856,
          "MEAN_ANOMALY": 327.3203,
          "EPHEMERIS_TYPE": 0,
          "CLASSIFICATION_TYPE": "U",
          "NORAD_CAT_ID": 2807,
          "ELEMENT_SET_NO": 999,
          "REV_AT_EPOCH": 88112,
          "BSTAR": 0.00017765,
          "MEAN_MOTION_DOT": 1.25e-06,
          "MEAN_MOTION_DDOT": 0
        }
      },
      "geometry": {
        "type": "Point",
        "coordinates": [
          NaN,
          NaN
        ]
      }
    },
    {
      "type": "Feature",
      "properties": {
        "norad_id": 2965,
        "name": "OPS 4947 (TRANSIT 17)",
        "group": "nnss",
        "lat": NaN,
        "lon": NaN,
        "alt_km": NaN,
        "timestamp": "2025-12-01T03:08:34.196319+00:00",
        "meta": {
          "OBJECT_NAME": "OPS 4947 (TRANSIT 17)",
          "OBJECT_ID": "1967-092A",
          "EPOCH": "2025-11-30T14:57:53.379936",
          "MEAN_MOTION": 13.53449029,
          "ECCENTRICITY": 0.0045703,
          "INCLINATION": 89.2511,
          "RA_OF_ASC_NODE": 25.359,
          "ARG_OF_PERICENTER": 270.9596,
          "MEAN_ANOMALY": 200.786,
          "EPHEMERIS_TYPE": 0,
          "CLASSIFICATION_TYPE": "U",
          "NORAD_CAT_ID": 2965,
          "ELEMENT_SET_NO": 999,
          "REV_AT_EPOCH": 86933,
          "BSTAR": 0.00017207,
          "MEAN_MOTION_DOT": 1.27e-06,
          "MEAN_MOTION_DDOT": 0
        }
      },
      "geometry": {
        "type": "Point",
        "coordinates": [
          NaN,
          NaN
        ]
      }
    },
    {
      "type": "Feature",
      "properties": {
        "norad_id": 3133,
        "name": "OPS 7034 (TRANSIT 18)",
        "group": "nnss",
        "lat": NaN,
        "lon": NaN,
        "alt_km": NaN,
        "timestamp": "2025-12-01T03:08:34.196328+00:00",
        "meta": {
          "OBJECT_NAME": "OPS 7034 (TRANSIT 18)",
          "OBJECT_ID": "1968-012A",
          "EPOCH": "2025-11-30T18:53:02.695200",
          "MEAN_MOTION": 13.51561709,
          "ECCENTRICITY": 0.0072754,
          "INCLINATION": 90.0266,
          "RA_OF_ASC_NODE": 273.6058,
          "ARG_OF_PERICENTER": 203.9679,
          "MEAN_ANOMALY": 213.3129,
          "EPHEMERIS_TYPE": 0,
          "CLASSIFICATION_TYPE": "U",
          "NORAD_CAT_ID": 3133,
          "ELEMENT_SET_NO": 999,
          "REV_AT_EPOCH": 56757,
          "BSTAR": 0.00013504,
          "MEAN_MOTION_DOT": 9.9e-07,
          "MEAN_MOTION_DDOT": 0
        }
      },
      "geometry": {
        "type": "Point",
        "coordinates": [
          NaN,
          NaN
        ]
      }
    },
    {
      "type": "Feature",
      "properties": {
        "norad_id": 4507,
        "name": "NNSS 19 (TRANSIT 19)",
        "group": "nnss",
        "lat": NaN,
        "lon": NaN,
        "alt_km": NaN,
        "timestamp": "2025-12-01T03:08:34.196335+00:00",
        "meta": {
          "OBJECT_NAME": "NNSS 19 (TRANSIT 19)",
          "OBJECT_ID": "1970-067A",
          "EPOCH": "2025-11-30T18:41:03.755616",
          "MEAN_MOTION": 13.51310012,
          "ECCENTRICITY": 0.0171395,
          "INCLINATION": 90.0057,
          "RA_OF_ASC_NODE": 234.5253,
          "ARG_OF_PERICENTER": 328.2664,
          "MEAN_ANOMALY": 30.8244,
          "EPHEMERIS_TYPE": 0,
          "CLASSIFICATION_TYPE": "U",
          "NORAD_CAT_ID": 4507,
          "ELEMENT_SET_NO": 999,
          "REV_AT_EPOCH": 72060,
          "BSTAR": 0.00019713,
          "MEAN_MOTION_DOT": 1.48e-06,
          "MEAN_MOTION_DDOT": 0
        }
      },
      "geometry": {
        "type": "Point",
        "coordinates": [
          NaN,
          NaN
        ]
      }
    },
    {
      "type": "Feature",
      "properties": {
        "norad_id": 6909,
        "name": "NNSS 20 (TRANSIT 20)",
        "group": "nnss",
        "lat": NaN,
        "lon": NaN,
        "alt_km": NaN,
        "timestamp": "2025-12-01T03:08:34.196341+00:00",
        "meta": {
          "OBJECT_NAME": "NNSS 20 (TRANSIT 20)",
          "OBJECT_ID": "1973-081A",
          "EPOCH": "2025-11-30T19:02:58.299648",
          "MEAN_MOTION": 13.71426111,
          "ECCENTRICITY": 0.0156378,
          "INCLINATION": 89.8555,
          "RA_OF_ASC_NODE": 255.2334,
          "ARG_OF_PERICENTER": 113.6982,
          "MEAN_ANOMALY": 248.0678,
          "EPHEMERIS_TYPE": 0,
          "CLASSIFICATION_TYPE": "U",
          "NORAD_CAT_ID": 6909,
          "ELEMENT_SET_NO": 999,
          "REV_AT_EPOCH": 80197,
          "BSTAR": 0.00022027,
          "MEAN_MOTION_DOT": 2.28e-06,
          "MEAN_MOTION_DDOT": 0
        }
      },
      "geometry": {
        "type": "Point",
        "coordinates": [
          NaN,
          NaN
        ]
      }
    },
    {
      "type": "Feature",
      "properties": {
        "norad_id": 10457,
        "name": "TRANSAT",
        "group": "nnss",
        "lat": NaN,
        "lon": NaN,
        "alt_km": NaN,
        "timestamp": "2025-12-01T03:08:34.196347+00:00",
        "meta": {
          "OBJECT_NAME": "TRANSAT",
          "OBJECT_ID": "1977-106A",
          "EPOCH": "2025-11-30T18:43:05.183040",
          "MEAN_MOTION": 13.48940645,
          "ECCENTRICITY": 0.0024344,
          "INCLINATION": 89.6481,
          "RA_OF_ASC_NODE": 79.0203,
          "ARG_OF_PERICENTER": 224.9423,
          "MEAN_ANOMALY": 247.8621,
          "EPHEMERIS_TYPE": 0,
          "CLASSIFICATION_TYPE": "U",
          "NORAD_CAT_ID": 10457,
          "ELEMENT_SET_NO": 999,
          "REV_AT_EPOCH": 36582,
          "BSTAR": 0.0001026,
          "MEAN_MOTION_DOT": 7.4e-07,
          "MEAN_MOTION_DDOT": 0
        }
      },
      "geometry": {
        "type": "Point",
        "coordinates": [
          NaN,
          NaN
        ]
      }
    },
    {
      "type": "Feature",
      "properties": {
        "norad_id": 12458,
        "name": "NOVA 1",
        "group": "nnss",
        "lat": NaN,
        "lon": NaN,
        "alt_km": NaN,
        "timestamp": "2025-12-01T03:08:34.196353+00:00",
        "meta": {
          "OBJECT_NAME": "NOVA 1",
          "OBJECT_ID": "1981-044A",
          "EPOCH": "2025-11-30T20:56:35.066112",
          "MEAN_MOTION": 13.23276575,
          "ECCENTRICITY": 0.0015511,
          "INCLINATION": 89.8521,
          "RA_OF_ASC_NODE": 91.553,
          "ARG_OF_PERICENTER": 133.2385,
          "MEAN_ANOMALY": 345.9736,
          "EPHEMERIS_TYPE": 0,
          "CLASSIFICATION_TYPE": "U",
          "NORAD_CAT_ID": 12458,
          "ELEMENT_SET_NO": 999,
          "REV_AT_EPOCH": 15029,
          "BSTAR": 9.4631e-05,
          "MEAN_MOTION_DOT": 4.9e-07,
          "MEAN_MOTION_DDOT": 0
        }
      },
      "geometry": {
        "type": "Point",
        "coordinates": [
          NaN,
          NaN
        ]
      }
    },
    {
      "type": "Feature",
      "properties": {
        "norad_id": 15362,
        "name": "NOVA 3",
        "group": "nnss",
        "lat": NaN,
        "lon": NaN,
        "alt_km": NaN,
        "timestamp": "2025-12-01T03:08:34.196358+00:00",
        "meta": {
          "OBJECT_NAME": "NOVA 3",
          "OBJECT_ID": "1984-110A",
          "EPOCH": "2025-11-30T17:54:24.861312",
          "MEAN_MOTION": 13.23042454,
          "ECCENTRICITY": 0.0031467,
          "INCLINATION": 90.1224,
          "RA_OF_ASC_NODE": 80.3934,
          "ARG_OF_PERICENTER": 5.6123,
          "MEAN_ANOMALY": 114.0703,
          "EPHEMERIS_TYPE": 0,
          "CLASSIFICATION_TYPE": "U",
          "NORAD_CAT_ID": 15362,
          "ELEMENT_SET_NO": 999,
          "REV_AT_EPOCH": 98540,
          "BSTAR": 0.0001286,
          "MEAN_MOTION_DOT": 6.3e-07,
          "MEAN_MOTION_DDOT": 0
        }
      },
      "geometry": {
        "type": "Point",
        "coordinates": [
          NaN,
          NaN
        ]
      }
    },
    {
      "type": "Feature",
      "properties": {
        "norad_id": 15935,
        "name": "OSCAR 30",
        "group": "nnss",
        "lat": NaN,
        "lon": NaN,
        "alt_km": NaN,
        "timestamp": "2025-12-01T03:08:34.196364+00:00",
        "meta": {
          "OBJECT_NAME": "OSCAR 30",
          "OBJECT_ID": "1985-066A",
          "EPOCH": "2025-11-30T18:29:37.260096",
          "MEAN_MOTION": 13.36075025,
          "ECCENTRICITY": 0.0169314,
          "INCLINATION": 90.1644,
          "RA_OF_ASC_NODE": 99.6517,
          "ARG_OF_PERICENTER": 117.3186,
          "MEAN_ANOMALY": 358.7088,
          "EPHEMERIS_TYPE": 0,
          "CLASSIFICATION_TYPE": "U",
          "NORAD_CAT_ID": 15935,
          "ELEMENT_SET_NO": 999,
          "REV_AT_EPOCH": 96293,
          "BSTAR": 0.00015524,
          "MEAN_MOTION_DOT": 9.7e-07,
          "MEAN_MOTION_DDOT": 0
        }
      },
      "geometry": {
        "type": "Point",
        "coordinates": [
          NaN,
          NaN
        ]
      }
    }
  ]
}